IRIDIUM 112             
1 41925U 17003J   24155.40113737  .00000197  00000+0  63223-4 0  9991
2 41925  86.3986  39.1324 0002306  77.3937 282.7517 14.34217518386692
IRIDIUM 111             
1 41926U 17003K   24155.38844974  .00000111  00000+0  32747-4 0  9996
2 41926  86.3986  39.1917 0001969  78.0226 282.1191 14.34218784386715
IRIDIUM 113             
1 42803U 17039A   24155.57772113  .00000033  00000+0  45533-5 0  9997
2 42803  86.3961 272.8721 0002008  93.1104 267.0322 14.34218330364609
IRIDIUM 123             
1 42804U 17039B   24155.68896698  .00000110  00000+0  32066-4 0  9997
2 42804  86.3946 304.3408 0001967  89.4303 270.7119 14.34218804363383
IRIDIUM 120             
1 42805U 17039C   24155.43184238  .00000339  00000+0  11390-3 0  9990
2 42805  86.3951 272.8120 0002159  91.9172 268.2271 14.34218459364575
IRIDIUM 115             
1 42806U 17039D   24155.40667531  .00000665  00000+0  19170-3 0  9996
2 42806  86.4488 272.8448 0001936  87.9727 272.1696 14.43284983366985
IRIDIUM 118             
1 42807U 17039E   24155.51137738  .00000069  00000+0  17745-4 0  9995
2 42807  86.3952 304.4174 0001938  81.3167 278.8249 14.34215869363359
IRIDIUM 117             
1 42808U 17039F   24155.46063247  .00000061  00000+0  14701-4 0  9994
2 42808  86.3945 304.4019 0001887  92.5704 267.5708 14.34215814363371
